[{"OBJECT_NAME":"STARLINK-32876","OBJECT_ID":"2025-043V","EPOCH":"2025-07-31T09:30:31.526208","MEAN_MOTION":15.276027,"ECCENTRICITY":0.0001709,"INCLINATION":43.001,"RA_OF_ASC_NODE":185.5187,"ARG_OF_PERICENTER":262.2218,"MEAN_ANOMALY":97.8439,"EPHEMERIS_TYPE":0,"CLASSIFICATION_TYPE":"U","NORAD_CAT_ID":63151,"ELEMENT_SET_NO":999,"REV_AT_EPOCH":2415,"BSTAR":0.00073775,"MEAN_MOTION_DOT":0.00020109,"MEAN_MOTION_DDOT":0},{"OBJECT_NAME":"STARLINK-32915","OBJECT_ID":"2025-043W","EPOCH":"2025-07-31T08:39:22.469472","MEAN_MOTION":15.27602,"ECCENTRICITY":0.0001326,"INCLINATION":43.0009,"RA_OF_ASC_NODE":192.9969,"ARG_OF_PERICENTER":265.8418,"MEAN_ANOMALY":94.2282,"EPHEMERIS_TYPE":0,"CLASSIFICATION_TYPE":"U","NORAD_CAT_ID":63152,"ELEMENT_SET_NO":999,"REV_AT_EPOCH":2343,"BSTAR":0.00083489,"MEAN_MOTION_DOT":0.00022799,"MEAN_MOTION_DDOT":0},{"OBJECT_NAME":"STARLINK-11602 [DTC]","OBJECT_ID":"2025-048A","EPOCH":"2025-07-30T12:06:28.985760","MEAN_MOTION":15.70893188,"ECCENTRICITY":0.0003391,"INCLINATION":43.0019,"RA_OF_ASC_NODE":219.4777,"ARG_OF_PERICENTER":273.6143,"MEAN_ANOMALY":86.4337,"EPHEMERIS_TYPE":0,"CLASSIFICATION_TYPE":"U","NORAD_CAT_ID":63183,"ELEMENT_SET_NO":999,"REV_AT_EPOCH":2319,"BSTAR":0.0013685,"MEAN_MOTION_DOT":0.00179417,"MEAN_MOTION_DDOT":0},{"OBJECT_NAME":"STARLINK-11617 [DTC]","OBJECT_ID":"2025-048B","EPOCH":"2025-07-31T09:20:40.939872","MEAN_MOTION":15.70890065,"ECCENTRICITY":0.0001532,"INCLINATION":42.9992,"RA_OF_ASC_NODE":214.0686,"ARG_OF_PERICENTER":266.7542,"MEAN_ANOMALY":93.315,"EPHEMERIS_TYPE":0,"CLASSIFICATION_TYPE":"U","NORAD_CAT_ID":63184,"ELEMENT_SET_NO":999,"REV_AT_EPOCH":2371,"BSTAR":0.0018476,"MEAN_MOTION_DOT":0.00244235,"MEAN_MOTION_DDOT":0},{"OBJECT_NAME":"STARLINK-11618 [DTC]","OBJECT_ID":"2025-048C","EPOCH":"2025-07-31T08:34:48.580608","MEAN_MOTION":15.70861747,"ECCENTRICITY":0.0001315,"INCLINATION":42.9978,"RA_OF_ASC_NODE":213.8103,"ARG_OF_PERICENTER":301.188,"MEAN_ANOMALY":58.8859,"EPHEMERIS_TYPE":0,"CLASSIFICATION_TYPE":"U","NORAD_CAT_ID":63185,"ELEMENT_SET_NO":999,"REV_AT_EPOCH":2370,"BSTAR":0.0019327,"MEAN_MOTION_DOT":0.00255554,"MEAN_MOTION_DDOT":0},{"OBJECT_NAME":"STARLINK-11646 [DTC]","OBJECT_ID":"2025-048D","EPOCH":"2025-07-31T06:47:57.203808","MEAN_MOTION":15.70865772,"ECCENTRICITY":0.0001276,"INCLINATION":43.0004,"RA_OF_ASC_NODE":214.1084,"ARG_OF_PERICENTER":274.9076,"MEAN_ANOMALY":85.1646,"EPHEMERIS_TYPE":0,"CLASSIFICATION_TYPE":"U","NORAD_CAT_ID":63186,"ELEMENT_SET_NO":999,"REV_AT_EPOCH":2370,"BSTAR":0.0019771,"MEAN_MOTION_DOT":0.00261674,"MEAN_MOTION_DDOT":0},{"OBJECT_NAME":"STARLINK-11622 [DTC]","OBJECT_ID":"2025-048E","EPOCH":"2025-07-31T09:35:58.031808","MEAN_MOTION":15.7091217,"ECCENTRICITY":0.0001616,"INCLINATION":43.0011,"RA_OF_ASC_NODE":214.1533,"ARG_OF_PERICENTER":283.4321,"MEAN_ANOMALY":76.6366,"EPHEMERIS_TYPE":0,"CLASSIFICATION_TYPE":"U","NORAD_CAT_ID":63187,"ELEMENT_SET_NO":999,"REV_AT_EPOCH":2371,"BSTAR":0.0015772,"MEAN_MOTION_DOT":0.00207693,"MEAN_MOTION_DDOT":0},{"OBJECT_NAME":"STARLINK-11642 [DTC]","OBJECT_ID":"2025-048F","EPOCH":"2025-07-31T01:27:35.255808","MEAN_MOTION":15.70902072,"ECCENTRICITY":0.0001291,"INCLINATION":42.9994,"RA_OF_ASC_NODE":215.8975,"ARG_OF_PERICENTER":252.3419,"MEAN_ANOMALY":107.7307,"EPHEMERIS_TYPE":0,"CLASSIFICATION_TYPE":"U","NORAD_CAT_ID":63188,"ELEMENT_SET_NO":999,"REV_AT_EPOCH":2366,"BSTAR":0.0016446,"MEAN_MOTION_DOT":0.00216734,"MEAN_MOTION_DDOT":0},{"OBJECT_NAME":"STARLINK-11639 [DTC]","OBJECT_ID":"2025-048G","EPOCH":"2025-07-31T10:21:39.502080","MEAN_MOTION":15.70866412,"ECCENTRICITY":7.47e-5,"INCLINATION":42.9984,"RA_OF_ASC_NODE":213.5107,"ARG_OF_PERICENTER":273.7819,"MEAN_ANOMALY":86.2963,"EPHEMERIS_TYPE":0,"CLASSIFICATION_TYPE":"U","NORAD_CAT_ID":63189,"ELEMENT_SET_NO":999,"REV_AT_EPOCH":2372,"BSTAR":0.0010199,"MEAN_MOTION_DOT":0.00132673,"MEAN_MOTION_DDOT":0},{"OBJECT_NAME":"STARLINK-11637 [DTC]","OBJECT_ID":"2025-048H","EPOCH":"2025-07-30T07:40:45.960960","MEAN_MOTION":15.70898527,"ECCENTRICITY":0.0001382,"INCLINATION":43.0003,"RA_OF_ASC_NODE":220.6741,"ARG_OF_PERICENTER":257.1313,"MEAN_ANOMALY":102.9401,"EPHEMERIS_TYPE":0,"CLASSIFICATION_TYPE":"U","NORAD_CAT_ID":63190,"ELEMENT_SET_NO":999,"REV_AT_EPOCH":2354,"BSTAR":0.0012677,"MEAN_MOTION_DOT":0.00165908,"MEAN_MOTION_DDOT":0},{"OBJECT_NAME":"STARLINK-11647 [DTC]","OBJECT_ID":"2025-048J","EPOCH":"2025-07-31T08:42:26.104032","MEAN_MOTION":15.70932259,"ECCENTRICITY":0.0004594,"INCLINATION":43.003,"RA_OF_ASC_NODE":213.8489,"ARG_OF_PERICENTER":250.6397,"MEAN_ANOMALY":109.3974,"EPHEMERIS_TYPE":0,"CLASSIFICATION_TYPE":"U","NORAD_CAT_ID":63191,"ELEMENT_SET_NO":999,"REV_AT_EPOCH":2371,"BSTAR":0.0014526,"MEAN_MOTION_DOT":0.00191093,"MEAN_MOTION_DDOT":0},{"OBJECT_NAME":"STARLINK-11643 [DTC]","OBJECT_ID":"2025-048K","EPOCH":"2025-07-31T07:26:10.954464","MEAN_MOTION":15.70880713,"ECCENTRICITY":0.0002218,"INCLINATION":42.9996,"RA_OF_ASC_NODE":214.3191,"ARG_OF_PERICENTER":276.9639,"MEAN_ANOMALY":83.0976,"EPHEMERIS_TYPE":0,"CLASSIFICATION_TYPE":"U","NORAD_CAT_ID":63192,"ELEMENT_SET_NO":999,"REV_AT_EPOCH":2370,"BSTAR":0.0016963,"MEAN_MOTION_DOT":0.00223551,"MEAN_MOTION_DDOT":0},{"OBJECT_NAME":"STARLINK-11635 [DTC]","OBJECT_ID":"2025-048L","EPOCH":"2025-07-31T11:30:16.724736","MEAN_MOTION":15.70904653,"ECCENTRICITY":0.000124,"INCLINATION":42.9994,"RA_OF_ASC_NODE":212.9992,"ARG_OF_PERICENTER":278.5475,"MEAN_ANOMALY":81.5252,"EPHEMERIS_TYPE":0,"CLASSIFICATION_TYPE":"U","NORAD_CAT_ID":63193,"ELEMENT_SET_NO":999,"REV_AT_EPOCH":2373,"BSTAR":0.0015378,"MEAN_MOTION_DOT":0.00202297,"MEAN_MOTION_DDOT":0},{"OBJECT_NAME":"STARLINK-11636 [DTC]","OBJECT_ID":"2025-048M","EPOCH":"2025-07-31T09:13:01.932960","MEAN_MOTION":15.70886723,"ECCENTRICITY":0.0001691,"INCLINATION":43,"RA_OF_ASC_NODE":214.0226,"ARG_OF_PERICENTER":274.4969,"MEAN_ANOMALY":85.5706,"EPHEMERIS_TYPE":0,"CLASSIFICATION_TYPE":"U","NORAD_CAT_ID":63194,"ELEMENT_SET_NO":999,"REV_AT_EPOCH":2371,"BSTAR":0.0013987,"MEAN_MOTION_DOT":0.00183399,"MEAN_MOTION_DDOT":0},{"OBJECT_NAME":"STARLINK-11631 [DTC]","OBJECT_ID":"2025-048N","EPOCH":"2025-07-31T09:43:36.838272","MEAN_MOTION":15.70870071,"ECCENTRICITY":0.0001206,"INCLINATION":43.0002,"RA_OF_ASC_NODE":214.1928,"ARG_OF_PERICENTER":271.1959,"MEAN_ANOMALY":88.8771,"EPHEMERIS_TYPE":0,"CLASSIFICATION_TYPE":"U","NORAD_CAT_ID":63195,"ELEMENT_SET_NO":999,"REV_AT_EPOCH":2371,"BSTAR":0.00093951,"MEAN_MOTION_DOT":0.00122041,"MEAN_MOTION_DDOT":0},{"OBJECT_NAME":"STARLINK-32946","OBJECT_ID":"2025-048P","EPOCH":"2025-07-31T11:15:51.974784","MEAN_MOTION":15.27504899,"ECCENTRICITY":7.71e-5,"INCLINATION":42.9982,"RA_OF_ASC_NODE":258.6567,"ARG_OF_PERICENTER":277.4009,"MEAN_ANOMALY":82.6755,"EPHEMERIS_TYPE":0,"CLASSIFICATION_TYPE":"U","NORAD_CAT_ID":63196,"ELEMENT_SET_NO":999,"REV_AT_EPOCH":2321,"BSTAR":-0.0012707,"MEAN_MOTION_DOT":-0.00034984,"MEAN_MOTION_DDOT":0}]
