STARLINK-32876          
1 63151U 25043V   25212.39619822  .00020109  00000+0  73775-3 0  9995
2 63151  43.0010 185.5187 0001709 262.2218  97.8439 15.27602700 23523
STARLINK-32915          
1 63152U 25043W   25212.36067673  .00022799  00000+0  83489-3 0  9994
2 63152  43.0009 192.9969 0001326 265.8418  94.2282 15.27602000 23438
STARLINK-11602 [DTC]    
1 63183U 25048A   25211.50450215  .00179417  00000+0  13685-2 0  9996
2 63183  43.0019 219.4777 0003391 273.6143  86.4337 15.70893188 23195
STARLINK-11617 [DTC]    
1 63184U 25048B   25212.38936273  .00244235  00000+0  18476-2 0  9991
2 63184  42.9992 214.0686 0001532 266.7542  93.3150 15.70890065 23714
STARLINK-11618 [DTC]    
1 63185U 25048C   25212.35750672  .00255554  00000+0  19327-2 0  9998
2 63185  42.9978 213.8103 0001315 301.1880  58.8859 15.70861747 23704
STARLINK-11646 [DTC]    
1 63186U 25048D   25212.28330097  .00261674  00000+0  19771-2 0  9999
2 63186  43.0004 214.1084 0001276 274.9076  85.1646 15.70865772 23708
STARLINK-11622 [DTC]    
1 63187U 25048E   25212.39997722  .00207693  00000+0  15772-2 0  9994
2 63187  43.0011 214.1533 0001616 283.4321  76.6366 15.70912170 23712
STARLINK-11642 [DTC]    
1 63188U 25048F   25212.06082472  .00216734  00000+0  16446-2 0  9991
2 63188  42.9994 215.8975 0001291 252.3419 107.7307 15.70902072 23666
STARLINK-11639 [DTC]    
1 63189U 25048G   25212.43170720  .00132673  00000+0  10199-2 0  9995
2 63189  42.9984 213.5107 0000747 273.7819  86.2963 15.70866412 23727
STARLINK-11637 [DTC]    
1 63190U 25048H   25211.31997640  .00165908  00000+0  12677-2 0  9991
2 63190  43.0003 220.6741 0001382 257.1313 102.9401 15.70898527 23542
STARLINK-11647 [DTC]    
1 63191U 25048J   25212.36280213  .00191093  00000+0  14526-2 0  9998
2 63191  43.0030 213.8489 0004594 250.6397 109.3974 15.70932259 23710
STARLINK-11643 [DTC]    
1 63192U 25048K   25212.30984901  .00223551  00000+0  16963-2 0  9990
2 63192  42.9996 214.3191 0002218 276.9639  83.0976 15.70880713 23703
STARLINK-11635 [DTC]    
1 63193U 25048L   25212.47936024  .00202297  00000+0  15378-2 0  9995
2 63193  42.9994 212.9992 0001240 278.5475  81.5252 15.70904653 23738
STARLINK-11636 [DTC]    
1 63194U 25048M   25212.38405015  .00183399  00000+0  13987-2 0  9992
2 63194  43.0000 214.0226 0001691 274.4969  85.5706 15.70886723 23718
STARLINK-11631 [DTC]    
1 63195U 25048N   25212.40528748  .00122041  00000+0  93951-3 0  9992
2 63195  43.0002 214.1928 0001206 271.1959  88.8771 15.70870071 23713
STARLINK-32946          
1 63196U 25048P   25212.46935156 -.00034984  00000+0 -12707-2 0  9993
2 63196  42.9982 258.6567 0000771 277.4009  82.6755 15.27504899 23215
